[{"OBJECT_NAME":"STARLINK-3107","OBJECT_ID":"2021-082AT","EPOCH":"2026-03-09T21:59:27.140640","MEAN_MOTION":15.10504087,"ECCENTRICITY":0.00073375,"INCLINATION":69.9932,"RA_OF_ASC_NODE":287.3824,"ARG_OF_PERICENTER":250.2407,"MEAN_ANOMALY":109.7967,"EPHEMERIS_TYPE":0,"CLASSIFICATION_TYPE":"U","NORAD_CAT_ID":49171,"ELEMENT_SET_NO":999,"REV_AT_EPOCH":24733,"BSTAR":0.001517345,"MEAN_MOTION_DOT":0.00025048,"MEAN_MOTION_DDOT":0},{"OBJECT_NAME":"STARLINK-3240","OBJECT_ID":"2021-115E","EPOCH":"2026-03-09T13:37:11.143776","MEAN_MOTION":15.08836642,"ECCENTRICITY":0.0001553,"INCLINATION":53.2181,"RA_OF_ASC_NODE":159.6694,"ARG_OF_PERICENTER":99.2198,"MEAN_ANOMALY":260.897,"EPHEMERIS_TYPE":0,"CLASSIFICATION_TYPE":"U","NORAD_CAT_ID":49728,"ELEMENT_SET_NO":999,"REV_AT_EPOCH":23537,"BSTAR":-2.4371e-5,"MEAN_MOTION_DOT":-6.76e-6,"MEAN_MOTION_DDOT":0}]
